ORBCOMM FM37 [-]        
1 33064U 08031E   24061.43157014  .00001938  00000+0  30818-3 0  9999
2 33064  48.4402  64.4185 0005348 156.2392 357.0341 14.75975868844128
ORBCOMM FM40 [-]        
1 33065U 08031F   24061.69465038  .00002546  00000+0  38453-3 0  9995
2 33065  48.4430  53.1999 0006670 165.1030   5.1884 14.77211769844190
VESSELSAT 1 [-]         
1 37840U 11058C   24061.70865939  .00000402  00000+0  75236-4 0  9999
2 37840  19.9618  72.3243 0013811  30.9946 329.1272 14.11120594639488
ORBCOMM FM109 [+]       
1 40086U 14040A   24061.74076134  .00000965  00000+0  25303-3 0  9997
2 40086  47.0035  84.4930 0002780 297.3095  62.7506 14.56337265512151
ORBCOMM FM107 [+]       
1 40087U 14040B   24061.98104394  .00000948  00000+0  24941-3 0  9992
2 40087  47.0052  84.3188 0002364 274.0140  86.0475 14.56339766512305
ORBCOMM FM106 [-]       
1 40088U 14040C   24061.78372999  .00001383  00000+0  27863-3 0  9999
2 40088  47.0615 303.5162 0017669  34.4026 325.8005 14.66672975514065
ORBCOMM FM111 [-]       
1 40089U 14040D   24061.69353762  .00003102  00000+0  41751-3 0  9990
2 40089  47.0025 213.1400 0032315  99.2871 261.1680 14.81182250520061
ORBCOMM FM104 [-]       
1 40090U 14040E   24061.40171663  .00000744  00000+0  20996-3 0  9996
2 40090  47.0049 115.1928 0017597 209.1857 150.8045 14.54906442511736
